NORAD_CAT_ID,OBJECT_NAME,OBJECT_TYPE,EPOCH,MEAN_MOTION,ECCENTRICITY,INCLINATION,RA_OF_ASC_NODE,ARG_OF_PERICENTER,MEAN_ANOMALY,BSTAR,MEAN_MOTION_DOT,MEAN_MOTION_DDOT,TLE_LINE0,TLE_LINE1,TLE_LINE2,SEMIMAJOR_AXIS,PERIOD,APOGEE,PERIGEE,DECAYED
54790.0,STARLINK-5445,PAYLOAD,2023-08-27 04:34:53,15.08836288,0.0001592,53.2167,223.6322,101.2794,258.8377,-1.4046e-05,-5.12e-06,0.0,0 STARLINK-5445,1 54790U 22175AJ  23239.19090134 -.00000512  00000-0 -14046-4 0  9997,2 54790  53.2167 223.6322 0001592 101.2794 258.8377 15.08836288 38259,6917.892,95.438,540.858,538.655,0.0
54790.0,STARLINK-5445,PAYLOAD,2023-08-27 10:56:26,15.08837814,0.0001608,53.2168,222.4428,103.0819,257.0353,1.5974e-06,-2.63e-06,0.0,0 STARLINK-5445,1 54790U 22175AJ  23239.45586017 -.00000263  00000-0  15974-5 0  9990,2 54790  53.2168 222.4428 0001608 103.0819 257.0353 15.08837814 40456,6917.887,95.438,540.864,538.64,0.0
54790.0,STARLINK-5445,PAYLOAD,2023-08-28 07:36:26,15.08840951,0.0001401,53.216,218.5814,101.6911,258.4239,4.4504e-05,4.2e-06,0.0,0 STARLINK-5445,1 54790U 22175AJ  23240.31697911  .00000420  00000-0  44504-4 0  9997,2 54790  53.2160 218.5814 0001401 101.6911 258.4239 15.08840951 38429,6917.877,95.437,540.712,538.773,0.0
54790.0,STARLINK-5445,PAYLOAD,2023-08-28 15:33:22,15.08839445,0.0001404,53.2159,217.0945,91.7774,268.3379,-2.7439e-06,-3.32e-06,0.0,0 STARLINK-5445,1 54790U 22175AJ  23240.64818213 -.00000332  00000-0 -27439-5 0  9996,2 54790  53.2159 217.0945 0001404  91.7774 268.3379 15.08839445 40632,6917.882,95.438,540.718,538.776,0.0
54790.0,STARLINK-5445,PAYLOAD,2023-08-29 07:27:14,15.08842115,0.0001378,53.2159,214.1205,93.1495,266.9655,7.4793e-05,9.03e-06,0.0,0 STARLINK-5445,1 54790U 22175AJ  23241.31057937  .00000903  00000-0  74793-4 0  9995,2 54790  53.2159 214.1205 0001378  93.1495 266.9655 15.08842115 40735,6917.874,95.437,540.692,538.786,0.0
54790.0,STARLINK-5445,PAYLOAD,2023-08-29 15:24:10,15.08834161,0.0001378,53.2161,212.6329,94.0717,266.0433,7.1782e-06,-1.74e-06,0.0,0 STARLINK-5445,1 54790U 22175AJ  23241.64178655 -.00000174  00000-0  71782-5 0  9999,2 54790  53.2161 212.6329 0001378  94.0717 266.0433 15.08834161 38627,6917.898,95.438,540.717,538.81,0.0
54790.0,STARLINK-5445,PAYLOAD,2023-08-30 15:14:57,15.0883524,0.0001415,53.2162,208.172,91.3575,268.758,2.579e-05,1.22e-06,0.0,0 STARLINK-5445,1 54790U 22175AJ  23242.63538909  .00000122  00000-0  25790-4 0  9990,2 54790  53.2162 208.1720 0001415  91.3575 268.7580 15.08835240 40935,6917.895,95.438,540.739,538.781,0.0
54790.0,STARLINK-5445,PAYLOAD,2023-08-31 03:58:02,15.08840328,0.0001291,53.2157,205.7936,88.9414,271.1726,5.6432e-05,6.1e-06,0.0,0 STARLINK-5445,1 54790U 22175AJ  23243.16530519  .00000610  00000-0  56432-4 0  9997,2 54790  53.2157 205.7936 0001291  88.9414 271.1726 15.08840328 38858,6917.879,95.438,540.637,538.851,0.0
54790.0,STARLINK-5445,PAYLOAD,2023-09-02 03:39:36,15.08844434,0.0001325,53.2153,196.8727,88.1662,271.9482,7.3846e-05,8.88e-06,0.0,0 STARLINK-5445,1 54790U 22175AJ  23245.15250160  .00000888  00000-0  73846-4 0  9994,2 54790  53.2153 196.8727 0001325  88.1662 271.9482 15.08844434 39150,6917.867,95.437,540.648,538.815,0.0
54790.0,STARLINK-5445,PAYLOAD,2023-09-02 21:08:51,15.08836379,0.0001028,53.2156,193.6024,82.5682,277.5427,5.9822e-06,-1.93e-06,0.0,0 STARLINK-5445,1 54790U 22175AJ  23245.88114963 -.00000193  00000-0  59822-5 0  9993,2 54790  53.2156 193.6024 0001028  82.5682 277.5427 15.08836379 41421,6917.891,95.438,540.468,539.045,0.0
54790.0,STARLINK-5445,PAYLOAD,2023-09-03 03:30:23,15.08843758,0.0001175,53.2177,192.4153,93.5072,266.6055,4.5618e-05,4.38e-06,0.0,0 STARLINK-5445,1 54790U 22175AJ  23246.14610388  .00000438  00000-0  45618-4 0  9993,2 54790  53.2177 192.4153 0001175  93.5072 266.6055 15.08843758 39301,6917.869,95.437,540.547,538.921,0.0
54790.0,STARLINK-5445,PAYLOAD,2023-09-03 13:02:42,15.08823447,0.0001194,53.2159,190.6303,78.4239,281.6887,0.00021777,3.178e-05,0.0,0 STARLINK-5445,1 54790U 22175AJ  23246.54354555  .00003178  00000-0  21777-3 0  9991,2 54790  53.2159 190.6303 0001194  78.4239 281.6887 15.08823447 41526,6917.931,95.439,540.622,538.97,0.0
54790.0,STARLINK-5445,PAYLOAD,2023-09-04 12:53:30,15.08830628,0.0001274,53.2173,186.17,89.3926,270.7212,2.4764e-05,1.06e-06,0.0,0 STARLINK-5445,1 54790U 22175AJ  23247.53715764  .00000106  00000-0  24764-4 0  9992,2 54790  53.2173 186.1700 0001274  89.3926 270.7212 15.08830628 41672,6917.909,95.438,540.655,538.893,0.0
54790.0,STARLINK-5445,PAYLOAD,2023-09-05 00:01:11,15.08840261,0.0001287,53.2168,184.0877,91.9741,268.1398,3.596e-05,2.84e-06,0.0,0 STARLINK-5445,1 54790U 22175AJ  23248.00083302  .00000284  00000-0  35960-4 0  9998,2 54790  53.2168 184.0877 0001287  91.9741 268.1398 15.08840261 39583,6917.88,95.438,540.635,538.854,0.0
54790.0,STARLINK-5445,PAYLOAD,2023-09-05 04:47:21,15.08843895,0.0001356,53.2172,183.196,95.0005,265.1142,6.7206e-05,7.82e-06,0.0,0 STARLINK-5445,1 54790U 22175AJ  23248.19955003  .00000782  00000-0  67206-4 0  9995,2 54790  53.2172 183.1960 0001356  95.0005 265.1142 15.08843895 41770,6917.868,95.437,540.672,538.795,0.0
54790.0,STARLINK-5445,PAYLOAD,2023-09-06 18:56:36,15.08839527,0.0001518,53.2183,176.0566,81.3847,278.7317,5.1538e-05,5.32e-06,0.0,0 STARLINK-5445,1 54790U 22175AJ  23249.78931700  .00000532  00000-0  51538-4 0  9993,2 54790  53.2183 176.0566 0001518  81.3847 278.7317 15.08839527 42016,6917.882,95.438,540.797,538.697,0.0
54790.0,STARLINK-5445,PAYLOAD,2023-09-07 01:18:09,15.08831121,0.0001323,53.2176,174.8702,90.979,269.1354,0.00022132,3.235e-05,0.0,0 STARLINK-5445,1 54790U 22175AJ  23250.05427742  .00003235  00000-0  22132-3 0  9991,2 54790  53.2176 174.8702 0001323  90.9790 269.1354 15.08831121 39892,6917.908,95.438,540.688,538.857,0.0
54790.0,STARLINK-5445,PAYLOAD,2023-09-07 18:47:23,15.08840919,0.0001283,53.2176,171.5989,87.3587,272.7552,4.1531e-05,3.73e-06,0.0,0 STARLINK-5445,1 54790U 22175AJ  23250.78291260  .00000373  00000-0  41531-4 0  9990,2 54790  53.2176 171.5989 0001283  87.3587 272.7552 15.08840919 42161,6917.878,95.437,540.63,538.855,0.0
54790.0,STARLINK-5445,PAYLOAD,2023-09-08 01:08:55,15.08842874,0.000148,53.2163,170.4075,98.8203,261.2956,7.8607e-05,9.63e-06,0.0,0 STARLINK-5445,1 54790U 22175AJ  23251.04786941  .00000963  00000-0  78607-4 0  9994,2 54790  53.2163 170.4075 0001480  98.8203 261.2956 15.08842874 42200,6917.872,95.437,540.76,538.713,0.0
54790.0,STARLINK-5445,PAYLOAD,2023-09-08 18:38:11,15.08834973,0.0001487,53.2163,167.1368,99.573,260.543,9.1238e-06,-1.43e-06,0.0,0 STARLINK-5445,1 54790U 22175AJ  23251.77651731 -.00000143  00000-0  91238-5 0  9999,2 54790  53.2163 167.1368 0001487  99.5730 260.5430 15.08834973 40150,6917.896,95.438,540.789,538.732,0.0
54790.0,STARLINK-5445,PAYLOAD,2023-09-09 04:10:29,15.08839513,0.000138,53.2164,165.3523,96.5883,263.5266,3.6417e-05,2.92e-06,0.0,0 STARLINK-5445,1 54790U 22175AJ  23252.17395436  .00000292  00000-0  36417-4 0  9992,2 54790  53.2164 165.3523 0001380  96.5883 263.5266 15.08839513 42373,6917.882,95.438,540.702,538.792,0.0
54790.0,STARLINK-5445,PAYLOAD,2023-09-10 00:50:30,15.08844413,0.000133,53.2173,161.4884,91.5521,268.5624,4.2687e-05,3.92e-06,0.0,0 STARLINK-5445,1 54790U 22175AJ  23253.03507260  .00000392  00000-0  42687-4 0  9995,2 54790  53.2173 161.4884 0001330  91.5521 268.5624 15.08844413 40342,6917.867,95.437,540.652,538.812,0.0
54790.0,STARLINK-5445,PAYLOAD,2023-09-10 04:01:16,15.0884865,0.0001337,53.217,160.8931,92.0354,268.0792,0.00010677,1.412e-05,0.0,0 STARLINK-5445,1 54790U 22175AJ  23253.16754767  .00001412  00000-0  10677-3 0  9992,2 54790  53.2170 160.8931 0001337  92.0354 268.0792 15.08848650 42522,6917.854,95.437,540.644,538.794,0.0
54790.0,STARLINK-5445,PAYLOAD,2023-09-10 23:05:54,15.08835158,0.0001249,53.2167,157.3245,91.9921,268.1215,2.543e-05,1.17e-06,0.0,0 STARLINK-5445,1 54790U 22175AJ  23253.96244068  .00000117  00000-0  25430-4 0  9993,2 54790  53.2167 157.3245 0001249  91.9921 268.1215 15.08835158 40480,6917.895,95.438,540.624,538.896,0.0
54790.0,STARLINK-5445,PAYLOAD,2023-09-11 10:13:36,15.08842585,0.0001243,53.2169,155.2419,88.5503,271.5631,7.1109e-05,8.44e-06,0.0,0 STARLINK-5445,1 54790U 22175AJ  23254.42611511  .00000844  00000-0  71109-4 0  9997,2 54790  53.2169 155.2419 0001243  88.5503 271.5631 15.08842585 40554,6917.872,95.437,540.597,538.878,0.0
54790.0,STARLINK-5445,PAYLOAD,2023-09-12 02:07:28,15.08838335,0.0001344,53.2169,152.2712,101.1975,258.9169,2.9775e-05,1.86e-06,0.0,0 STARLINK-5445,1 54790U 22175AJ  23255.08852120  .00000186  00000-0  29775-4 0  9994,2 54790  53.2169 152.2712 0001344 101.1975 258.9169 15.08838335 40658,6917.885,95.438,540.68,538.821,0.0
54790.0,STARLINK-5445,PAYLOAD,2023-09-12 03:42:50,15.08848941,0.0001383,53.2172,151.9725,89.9552,270.1598,6.9379e-05,8.17e-06,0.0,0 STARLINK-5445,1 54790U 22175AJ  23255.15475277  .00000817  00000-0  69379-4 0  9991,2 54790  53.2172 151.9725 0001383  89.9552 270.1598 15.08848941 40666,6917.853,95.437,540.675,538.761,0.0
54790.0,STARLINK-5445,PAYLOAD,2023-09-12 21:12:06,15.08836476,0.0001278,53.2166,148.7005,95.4181,264.6957,-2.0968e-05,-6.22e-06,0.0,0 STARLINK-5445,1 54790U 22175AJ  23255.88340451 -.00000622  00000-0 -20968-4 0  9993,2 54790  53.2166 148.7005 0001278  95.4181 264.6957 15.08836476 42936,6917.891,95.438,540.64,538.872,0.0
54790.0,STARLINK-5445,PAYLOAD,2023-09-13 00:22:52,15.08842367,0.0001609,53.2164,148.1082,68.2763,291.84,5.6102e-05,6.05e-06,0.0,0 STARLINK-5445,1 54790U 22175AJ  23256.01588059  .00000605  00000-0  56102-4 0  9995,2 54790  53.2164 148.1082 0001609  68.2763 291.8400 15.08842367 40798,6917.873,95.437,540.851,538.625,0.0
54790.0,STARLINK-5445,PAYLOAD,2023-09-13 21:02:52,15.08844341,0.0001303,53.2162,144.2409,90.512,269.6022,0.00011704,1.575e-05,0.0,0 STARLINK-5445,1 54790U 22175AJ  23256.87699381  .00001575  00000-0  11704-3 0  9995,2 54790  53.2162 144.2409 0001303  90.5120 269.6022 15.08844341 43084,6917.867,95.437,540.634,538.831,0.0
